QIANFAN-89              
1 63175U 25046S   25266.96086407  .00000025  00000+0  20185-4 0  9996
2 63175  88.9833 328.2840 0015945   4.0508 356.0770 13.50967464 36632
QIANFAN-90              
1 63176U 25046T   25266.91560097  .00000231  00000+0  33843-3 0  9997
2 63176  88.9833 328.2613 0012832   4.4422 355.6841 13.50980568 36647
